ACS3                    
1 59588U 24077B   24165.66268983  .00000066  00000+0  11170-3 0  9995
2 59588  97.4060 234.6617 0021625 103.8981 256.4578 13.67684984  6928
